{
    "links": {
        "self": "http://www.neowsapp.com/rest/v1/neo/3781231?api_key=iIulBulltgU6a56xZRHN4H3l9WmuAYTsLGpBGhQ2"
    },
    "id": "3781231",
    "neo_reference_id": "3781231",
    "name": "(2017 QS32)",
    "designation": "2017 QS32",
    "nasa_jpl_url": "http://ssd.jpl.nasa.gov/sbdb.cgi?sstr=3781231",
    "absolute_magnitude_h": 24.5,
    "estimated_diameter": {
        "kilometers": {
            "estimated_diameter_min": 0.0334622374,
            "estimated_diameter_max": 0.0748238376
        },
        "meters": {
            "estimated_diameter_min": 33.4622374455,
            "estimated_diameter_max": 74.8238376074
        },
        "miles": {
            "estimated_diameter_min": 0.0207924639,
            "estimated_diameter_max": 0.0464933628
        },
        "feet": {
            "estimated_diameter_min": 109.7842471007,
            "estimated_diameter_max": 245.4850393757
        }
    },
    "is_potentially_hazardous_asteroid": false,
    "close_approach_data": [
        {
            "close_approach_date": "2010-10-01",
            "close_approach_date_full": "2010-Oct-01 22:59",
            "epoch_date_close_approach": 1285973940000,
            "relative_velocity": {
                "kilometers_per_second": "10.5572519597",
                "kilometers_per_hour": "38006.1070548466",
                "miles_per_hour": "23615.5169086073"
            },
            "miss_distance": {
                "astronomical": "0.0784586348",
                "lunar": "30.5204089372",
                "kilometers": "11737244.649187876",
                "miles": "7293185.6354936488"
            },
            "orbiting_body": "Mars"
        },
        {
            "close_approach_date": "2017-08-18",
            "close_approach_date_full": "2017-Aug-18 12:13",
            "epoch_date_close_approach": 1503058380000,
            "relative_velocity": {
                "kilometers_per_second": "5.2679392993",
                "kilometers_per_hour": "18964.5814774552",
                "miles_per_hour": "11783.8534185888"
            },
            "miss_distance": {
                "astronomical": "0.0968257149",
                "lunar": "37.6652030961",
                "kilometers": "14484920.710267263",
                "miles": "9000512.3700557094"
            },
            "orbiting_body": "Earth"
        },
        {
            "close_approach_date": "2027-07-05",
            "close_approach_date_full": "2027-Jul-05 05:24",
            "epoch_date_close_approach": 1814765040000,
            "relative_velocity": {
                "kilometers_per_second": "17.3645908753",
                "kilometers_per_hour": "62512.527150959",
                "miles_per_hour": "38842.8533288834"
            },
            "miss_distance": {
                "astronomical": "0.4575590638",
                "lunar": "177.9904758182",
                "kilometers": "68449861.343674106",
                "miles": "42532771.5681344228"
            },
            "orbiting_body": "Earth"
        }
    ],
    "orbital_data": {
        "orbit_id": "5",
        "orbit_determination_date": "2017-09-29 06:51:28",
        "first_observation_date": "2017-08-19",
        "last_observation_date": "2017-09-22",
        "data_arc_in_days": 34,
        "observations_used": 47,
        "orbit_uncertainty": "6",
        "minimum_orbit_intersection": ".0951336",
        "jupiter_tisserand_invariant": "3.474",
        "epoch_osculation": "2459000.5",
        "eccentricity": ".5017140521693222",
        "semi_major_axis": "2.22003381787532",
        "inclination": ".7349073486561789",
        "ascending_node_longitude": "263.2853300598063",
        "orbital_period": "1208.197164241925",
        "perihelion_distance": "1.106211655156162",
        "perihelion_argument": "62.32528287853052",
        "aphelion_distance": "3.333855980594478",
        "perihelion_time": "2459193.004274722545",
        "mean_anomaly": "302.6405383565033",
        "mean_motion": ".2979646126101276",
        "equinox": "J2000",
        "orbit_class": {
            "orbit_class_type": "AMO",
            "orbit_class_description": "Near-Earth asteroid orbits similar to that of 1221 Amor",
            "orbit_class_range": "1.017 AU < q (perihelion) < 1.3 AU"
        }
    },
    "is_sentry_object": false
}